IRIDIUM 166             
1 43570U 18061B   25061.93891648 -.00000001  00000+0 -74206-5 0  9993
2 43570  86.3918 253.6266 0001910  79.2148 280.9263 14.34217407345856
IRIDIUM 158             
1 43571U 18061C   25061.90720399 -.00000021  00000+0 -14428-4 0  9996
2 43571  86.3919 253.6496 0002148  89.7127 270.4315 14.34217327345819
IRIDIUM 165             
1 43572U 18061D   25061.93257346 -.00000019  00000+0 -13749-4 0  9999
2 43572  86.3921 253.6763 0001748  88.9965 271.1431 14.34217363345846
IRIDIUM 155             
1 43573U 18061E   25061.89451638  .00000094  00000+0  26341-4 0  9998
2 43573  86.3914 253.5846 0002301  84.6595 275.4863 14.34218848345809
IRIDIUM 154             
1 43574U 18061F   25061.59641653 -.00000035  00000+0 -19601-4 0  9992
2 43574  86.3920 253.8197 0001874  89.8748 270.2662 14.34217197345817
IRIDIUM 163             
1 43575U 18061G   25061.92623131 -.00000007  00000+0 -97304-5 0  9997
2 43575  86.3918 253.6119 0002053  92.9053 267.2378 14.34217406345836
IRIDIUM 156             
1 43576U 18061H   25061.90086116 -.00000008  00000+0 -99840-5 0  9990
2 43576  86.3918 253.6294 0002143  80.2032 279.9405 14.34217478345827
IRIDIUM 164             
1 43577U 18061J   25061.88183254 -.00000041  00000+0 -21682-4 0  9994
2 43577  86.3920 253.6701 0001693  88.9907 271.1483 14.34217214345861
